[{"OBJECT_NAME":"SHIYAN-1 (SY-1)","OBJECT_ID":"2004-012A","EPOCH":"2026-03-09T17:40:34.066560","MEAN_MOTION":15.31043463,"ECCENTRICITY":0.00058726,"INCLINATION":97.8764,"RA_OF_ASC_NODE":140.5238,"ARG_OF_PERICENTER":23.6952,"MEAN_ANOMALY":336.4557,"EPHEMERIS_TYPE":0,"CLASSIFICATION_TYPE":"U","NORAD_CAT_ID":28220,"ELEMENT_SET_NO":999,"REV_AT_EPOCH":19586,"BSTAR":0.00054854449,"MEAN_MOTION_DOT":0.00016393,"MEAN_MOTION_DDOT":0},{"OBJECT_NAME":"STARLINK-34791","OBJECT_ID":"2025-224K","EPOCH":"2026-03-09T23:27:49.248576","MEAN_MOTION":15.30234471,"ECCENTRICITY":0.00013171,"INCLINATION":53.1612,"RA_OF_ASC_NODE":10.3449,"ARG_OF_PERICENTER":98.5779,"MEAN_ANOMALY":261.5371,"EPHEMERIS_TYPE":0,"CLASSIFICATION_TYPE":"U","NORAD_CAT_ID":65891,"ELEMENT_SET_NO":999,"REV_AT_EPOCH":2491,"BSTAR":0.0010465324,"MEAN_MOTION_DOT":0.00030798,"MEAN_MOTION_DDOT":0}]
